NORAD_CAT_ID,OBJECT_NAME,OBJECT_TYPE,EPOCH,MEAN_MOTION,ECCENTRICITY,INCLINATION,RA_OF_ASC_NODE,ARG_OF_PERICENTER,MEAN_ANOMALY,BSTAR,MEAN_MOTION_DOT,MEAN_MOTION_DDOT,TLE_LINE0,TLE_LINE1,TLE_LINE2,SEMIMAJOR_AXIS,PERIOD,APOGEE,PERIGEE,DECAYED
52339.0,STARLINK-3792,PAYLOAD,2022-09-11 14:00:01,15.08814947,0.0001885,53.2186,173.3041,51.0511,14.7915,0.0021015,0.00033293,0.0,0 STARLINK-3792,1 52339U 22045J   22254.58334491  .00033293  00000-0  21015-2 0  9998,2 52339  53.2186 173.3041 0001885  51.0511  14.7915 15.08814947 23147,6917.956999999999,95.439,541.126,538.518,0.0
52339.0,STARLINK-3792,PAYLOAD,2022-09-11 22:00:00,15.08866697,0.0001963,53.2186,171.8086,50.9528,26.4624,-0.0030096999999999,-0.00047905,0.0,0 STARLINK-3792,1 52339U 22045J   22254.91667824 -.00047905  00000-0 -30097-2 0  9991,2 52339  53.2186 171.8086 0001963  50.9528  26.4624 15.08866697  1302,6917.799,95.436,541.0219999999998,538.306,0.0
52339.0,STARLINK-3792,PAYLOAD,2022-09-12 06:00:00,15.08809883,0.0002029,53.2184,170.3133,44.7593,44.2714,0.0030586,0.00048686,0.0,0 STARLINK-3792,1 52339U 22045J   22255.25001157  .00048686  00000-0  30586-2 0  9998,2 52339  53.2184 170.3133 0002029  44.7593  44.2714 15.08809883 23243,6917.972,95.439,541.241,538.434,0.0
52339.0,STARLINK-3792,PAYLOAD,2022-09-12 14:00:01,15.08827806,0.0001843,53.2187,168.8153,48.8974,51.7237,0.0020567,0.00032585,0.0,0 STARLINK-3792,1 52339U 22045J   22255.58334491  .00032585  00000-0  20567-2 0  9993,2 52339  53.2187 168.8153 0001843  48.8974  51.7237 15.08827806  1302,6917.918000000002,95.438,541.058,538.508,0.0
52339.0,STARLINK-3792,PAYLOAD,2022-09-12 22:00:00,15.08856593,0.0001904,53.2187,167.3197,48.8288,63.3873,-0.0021156,-0.00033816,0.0,0 STARLINK-3792,1 52339U 22045J   22255.91667824 -.00033816  00000-0 -21156-2 0  9994,2 52339  53.2187 167.3197 0001904  48.8288  63.3873 15.08856593  1300,6917.83,95.437,541.012,538.378,0.0
52339.0,STARLINK-3792,PAYLOAD,2022-09-13 14:00:01,15.08807677,0.0001744,53.2187,164.3263,46.0685,89.3525,0.0033948999999999,0.00054109,0.0,0 STARLINK-3792,1 52339U 22045J   22256.58334491  .00054109  00000-0  33949-2 0  9998,2 52339  53.2187 164.3263 0001744  46.0685  89.3525 15.08807677  1305,6917.979,95.44,541.0509999999998,538.638,0.0
52339.0,STARLINK-3792,PAYLOAD,2022-09-13 16:00:00,15.08816493,0.0001742,53.2185,163.9514,48.1351,180.1781,0.0030881999999999,0.00049172,0.0,0 STARLINK-3792,1 52339U 22045J   22256.66667824  .00049172  00000-0  30882-2 0  9993,2 52339  53.2185 163.9514 0001742  48.1351 180.1781 15.08816493 23458,6917.9519999999975,95.439,541.0219999999998,538.612,0.0
52339.0,STARLINK-3792,PAYLOAD,2022-09-13 22:00:00,15.08851722,0.0001902,53.2188,162.83100000000005,46.0927,100.8732,-0.00086666,-0.00014059,0.0,0 STARLINK-3792,1 52339U 22045J   22256.91667824 -.00014059  00000-0 -86666-3 0  9991,2 52339  53.2188 162.8310 0001902  46.0927 100.8732 15.08851722  1306,6917.845,95.437,541.025,538.394,0.0
52339.0,STARLINK-3792,PAYLOAD,2022-09-14 06:00:00,15.08820639,0.0002044,53.2185,161.3355,39.6006,118.9289,0.0023833,0.00037826,0.0,0 STARLINK-3792,1 52339U 22045J   22257.25001157  .00037826  00000-0  23833-2 0  9991,2 52339  53.2185 161.3355 0002044  39.6006 118.9289 15.08820639 23540,6917.94,95.439,541.219,538.391,0.0
52339.0,STARLINK-3792,PAYLOAD,2022-09-14 14:00:01,15.08836428,0.0001769,53.2174,159.8204,58.1001,112.0463,2.1001e-05,4.6e-07,0.0,0 STARLINK-3792,1 52339U 22045J   22257.58334491  .00000046  00000-0  21001-4 0  9998,2 52339  53.2174 159.8204 0001769  58.1001 112.0463 15.08836428  1309,6917.891,95.438,540.98,538.533,0.0
52339.0,STARLINK-3792,PAYLOAD,2022-09-14 22:00:00,15.08835791,0.0001841999999999,53.2176,158.3252,56.7847,124.9535,9.9899e-05,1.302e-05,0.0,0 STARLINK-3792,1 52339U 22045J   22257.91667824  .00001302  00000-0  99899-4 0  9990,2 52339  53.2176 158.3252 0001842  56.7847 124.9535 15.08835791  1306,6917.893,95.438,541.033,538.484,0.0
52339.0,STARLINK-3792,PAYLOAD,2022-09-15 14:00:01,15.0881318,0.0001829,53.2184,155.3484,46.1285,158.8234,0.0027161999999999,0.00043174,0.0,0 STARLINK-3792,1 52339U 22045J   22258.58334491  .00043174  00000-0  27162-2 0  9990,2 52339  53.2184 155.3484 0001829  46.1285 158.8234 15.08813180  1303,6917.962,95.439,541.0930000000002,538.562,0.0
52339.0,STARLINK-3792,PAYLOAD,2022-09-15 16:00:00,15.08815996,0.0001843,53.2185,154.9742,48.50100000000001,249.3449,0.0030921,0.00049235,0.0,0 STARLINK-3792,1 52339U 22045J   22258.66667824  .00049235  00000-0  30921-2 0  9999,2 52339  53.2185 154.9742 0001843  48.5010 249.3449 15.08815996  1305,6917.954000000002,95.439,541.094,538.544,0.0
52339.0,STARLINK-3792,PAYLOAD,2022-09-16 00:13:27,15.08831021,0.0001889999999999,53.2205,153.4371,51.2829,308.8332,0.00010505,1.384e-05,0.0,0 STARLINK-3792,1 52339U 22045J   22259.00934285  .00001384  00000-0  10505-3 0  9996,2 52339  53.2205 153.4371 0001890  51.2829 308.8332 15.08831021 23810,6917.908,95.438,541.08,538.465,0.0
52339.0,STARLINK-3792,PAYLOAD,2022-09-16 01:48:50,15.08833195,0.0001921999999999,53.2203,153.1396,47.6612,312.4543,0.00010842,1.437e-05,0.0,0 STARLINK-3792,1 52339U 22045J   22259.07558162  .00001437  00000-0  10842-3 0  9992,2 52339  53.2203 153.1396 0001922  47.6612 312.4543 15.08833195 23827,6917.901,95.438,541.096,538.437,0.0
52339.0,STARLINK-3792,PAYLOAD,2022-09-16 20:53:27,15.08834407,0.0001774,53.2201,149.5716,52.1229,307.9923,3.6334e-05,2.9e-06,0.0,0 STARLINK-3792,1 52339U 22045J   22259.87046291  .00000290  00000-0  36334-4 0  9996,2 52339  53.2201 149.5716 0001774  52.1229 307.9923 15.08834407 23941,6917.897,95.438,540.99,538.535,0.0
52339.0,STARLINK-3792,PAYLOAD,2022-09-17 01:39:37,15.08831955,0.0001272,53.2197,148.6775,51.8097,308.301,-0.00012707,-2.309e-05,0.0,0 STARLINK-3792,1 52339U 22045J   22260.06918828 -.00002309  00000-0 -12707-3 0  9995,2 52339  53.2197 148.6775 0001272  51.8097 308.3010 15.08831955 23972,6917.905,95.438,540.65,538.89,0.0
52339.0,STARLINK-3792,PAYLOAD,2022-09-17 20:44:15,15.08832092,0.0001843,53.2199,145.1115,44.2975,315.8164,-1.2825e-05,-4.92e-06,0.0,0 STARLINK-3792,1 52339U 22045J   22260.86407200 -.00000492  00000-0 -12825-4 0  9993,2 52339  53.2199 145.1115 0001843  44.2975 315.8164 15.08832092 24099,6917.905,95.438,541.045,538.495,0.0
52339.0,STARLINK-3792,PAYLOAD,2022-09-18 01:30:24,15.088366699999998,0.0001851,53.2197,144.2187,43.9468,316.1671,1.3800000000000008e-05,-6.9e-07,0.0,0 STARLINK-3792,1 52339U 22045J   22261.06278921 -.00000069  00000-0  13800-4 0  9995,2 52339  53.2197 144.2187 0001851  43.9468 316.1671 15.08836670 24125,6917.891,95.438,541.036,538.475,0.0
52339.0,STARLINK-3792,PAYLOAD,2022-09-18 09:27:20,15.08841449,0.0001836,53.2196,142.7319,43.9763,316.1375,5.8839e-05,6.48e-06,0.0,0 STARLINK-3792,1 52339U 22045J   22261.39398527  .00000648  00000-0  58839-4 0  9999,2 52339  53.2196 142.7319 0001836  43.9763 316.1375 15.08841449 24171,6917.876,95.437,541.011,538.471,0.0
52339.0,STARLINK-3792,PAYLOAD,2022-09-18 20:35:01,15.0883886,0.0001857,53.2196,140.6511,41.9631,318.1503,0.00021677,3.163e-05,0.0,0 STARLINK-3792,1 52339U 22045J   22261.85766075  .00003163  00000-0  21677-3 0  9991,2 52339  53.2196 140.6511 0001857  41.9631 318.1503 15.08838860 24243,6917.884,95.438,541.034,538.464,0.0
52339.0,STARLINK-3792,PAYLOAD,2022-09-19 01:21:11,15.08839772,0.0001863,53.2196,139.762,47.5184,312.5965,0.00021964,3.209e-05,0.0,0 STARLINK-3792,1 52339U 22045J   22262.05638155  .00003209  00000-0  21964-3 0  9991,2 52339  53.2196 139.7620 0001863  47.5184 312.5965 15.08839772 24271,6917.880999999999,95.438,541.035,538.457,0.0
52339.0,STARLINK-3792,PAYLOAD,2022-09-19 09:18:06,15.0884133,0.0002044,53.2195,138.2765,44.8057,315.31,0.00022119,3.234e-05,0.0,0 STARLINK-3792,1 52339U 22045J   22262.38758083  .00003234  00000-0  22119-3 0  9991,2 52339  53.2195 138.2765 0002044  44.8057 315.3100 15.08841330 24326,6917.876,95.437,541.155,538.327,0.0
52339.0,STARLINK-3792,PAYLOAD,2022-09-19 22:01:12,15.088452900000002,0.0002119,53.2199,135.8954,42.0369,318.0785,0.00010998,1.463e-05,0.0,0 STARLINK-3792,1 52339U 22045J   22262.91750065  .00001463  00000-0  10998-3 0  9996,2 52339  53.2199 135.8954 0002119  42.0369 318.0785 15.08845290 24409,6917.864000000001,95.437,541.195,538.263,0.0
52339.0,STARLINK-3792,PAYLOAD,2022-09-20 01:11:58,15.08843849,0.0001751999999999,53.2198,135.2991,46.6138,313.5,5.0961e-05,5.23e-06,0.0,0 STARLINK-3792,1 52339U 22045J   22263.04998254  .00000523  00000-0  50961-4 0  9996,2 52339  53.2198 135.2991 0001752  46.6138 313.5000 15.08843849 24429,6917.869000000002,95.437,540.946,538.5219999999998,0.0
52339.0,STARLINK-3792,PAYLOAD,2022-09-20 18:41:13,15.08842597,0.0001818,53.2197,132.0288,48.581,311.5338,-4.5809e-05,-1.017e-05,0.0,0 STARLINK-3792,1 52339U 22045J   22263.77862508 -.00001017  00000-0 -45809-4 0  9994,2 52339  53.2197 132.0288 0001818  48.5810 311.5338 15.08842597 24536,6917.871999999999,95.437,540.995,538.48,0.0
52339.0,STARLINK-3792,PAYLOAD,2022-09-21 21:42:47,15.08833017,0.0001869,53.2206,126.9754,41.3307,318.7826,-8.5218e-05,-1.644e-05,0.0,0 STARLINK-3792,1 52339U 22045J   22264.90471239 -.00001644  00000-0 -85218-4 0  9991,2 52339  53.2206 126.9754 0001869  41.3307 318.7826 15.08833017 24702,6917.901999999999,95.438,541.06,538.474,0.0
52339.0,STARLINK-3792,PAYLOAD,2022-09-22 02:28:56,15.08831978,0.0001908,53.2168,126.0809,42.0261,318.0877,-5.1169e-05,-1.102e-05,0.0,0 STARLINK-3792,1 52339U 22045J   22265.10343228 -.00001102  00000-0 -51169-4 0  9997,2 52339  53.2168 126.0809 0001908  42.0261 318.0877 15.08831978 24738,6917.905,95.438,541.09,538.45,0.0
52339.0,STARLINK-3792,PAYLOAD,2022-09-22 19:58:10,15.08835779,0.0002044,53.2171,122.8102,45.6997,314.4163,5.4778e-05,5.84e-06,0.0,0 STARLINK-3792,1 52339U 22045J   22265.83206965  .00000584  00000-0  54778-4 0  9993,2 52339  53.2171 122.8102 0002044  45.6997 314.4163 15.08835779 24842,6917.893,95.438,541.172,538.344,0.0
